NORAD_CAT_ID,OBJECT_NAME,OBJECT_TYPE,EPOCH,MEAN_MOTION,ECCENTRICITY,INCLINATION,RA_OF_ASC_NODE,ARG_OF_PERICENTER,MEAN_ANOMALY,BSTAR,MEAN_MOTION_DOT,MEAN_MOTION_DDOT,TLE_LINE0,TLE_LINE1,TLE_LINE2,SEMIMAJOR_AXIS,PERIOD,APOGEE,PERIGEE,DECAYED
53555.0,STARLINK-4504,PAYLOAD,2022-10-14 18:00:00,15.37875508,0.0001264999999999,53.2174,240.6466,77.6562,57.5913,-0.0308269999999999,-0.0106951,0.0,0 STARLINK-4504,1 53555U 22101AE  22287.75001157 -.01069510  00000-0 -30827-1 0  9991,2 53555  53.2174 240.6466 0001265  77.6562  57.5913 15.37875508  1305,6830.53,93.636,453.259,451.531,0.0
53555.0,STARLINK-4504,PAYLOAD,2022-10-15 14:00:01,15.35976609,0.0001302,53.2176,236.7448,56.70399999999999,11.8785,-0.032768,-0.01068824,0.0,0 STARLINK-4504,1 53555U 22101AE  22288.58334491 -.01068824  00000-0 -32768-1 0  9996,2 53555  53.2176 236.7448 0001302  56.7040  11.8785 15.35976609  1306,6836.158,93.751,458.913,457.133,0.0
53555.0,STARLINK-4504,PAYLOAD,2022-10-15 22:00:01,15.35216245,0.0001483,53.2178,235.1867,52.7192,59.6644,-0.0335149999999999,-0.01066921,0.0,0 STARLINK-4504,1 53555U 22101AE  22288.91668981 -.01066921  00000-0 -33515-1 0  9994,2 53555  53.2178 235.1867 0001483  52.7192  59.6644 15.35216245  1307,6838.415,93.798,461.294,459.266,0.0
53555.0,STARLINK-4504,PAYLOAD,2022-10-16 14:00:01,15.33698349,0.0001339,53.2176,232.0767,79.047,118.0079,-0.035237,-0.01068378,0.0,0 STARLINK-4504,1 53555U 22101AE  22289.58334491 -.01068378  00000-0 -35237-1 0  9995,2 53555  53.2176 232.0767 0001339  79.0470 118.0079 15.33698349  1300,6842.926,93.891,465.708,463.875,0.0
53555.0,STARLINK-4504,PAYLOAD,2022-10-16 22:00:00,15.32937687,0.0001336,53.2177,230.5244,83.2992,154.7548,-0.0360129999999999,-0.01066036,0.0,0 STARLINK-4504,1 53555U 22101AE  22289.91667824 -.01066036  00000-0 -36013-1 0  9993,2 53555  53.2177 230.5244 0001336  83.2992 154.7548 15.32937687  1305,6845.19,93.937,467.97,466.14,0.0
53555.0,STARLINK-4504,PAYLOAD,2022-10-17 14:00:01,15.31420034,0.0001334,53.2175,227.4248,54.3278,262.9858,-0.037886,-0.01068804,0.0,0 STARLINK-4504,1 53555U 22101AE  22290.58334491 -.01068804  00000-0 -37886-1 0  9993,2 53555  53.2175 227.4248 0001334  54.3278 262.9858 15.31420034  1304,6849.712,94.03,472.49,470.663,0.0
53555.0,STARLINK-4504,PAYLOAD,2022-10-17 22:00:00,15.30660331,0.0001165999999999,53.2177,225.8779,76.7443,278.83,-0.038758,-0.01067749,0.0,0 STARLINK-4504,1 53555U 22101AE  22290.91667824 -.01067749  00000-0 -38758-1 0  9995,2 53555  53.2177 225.8779 0001166  76.7443 278.8300 15.30660331  1305,6851.978,94.077,474.642,473.044,0.0
53555.0,STARLINK-4504,PAYLOAD,2022-10-18 14:00:01,15.29139998,0.0001284999999999,53.2173,222.7885,63.342,6.0175,-0.040575,-0.01066334,0.0,0 STARLINK-4504,1 53555U 22101AE  22291.58334491 -.01066334  00000-0 -40575-1 0  9999,2 53555  53.2173 222.7885 0001285  63.3420   6.0175 15.29139998  9389,6856.519,94.171,479.265,477.503,0.0
53555.0,STARLINK-4504,PAYLOAD,2022-10-18 22:00:00,15.28381279,0.0001368,53.2175,221.2476,63.2476,41.6338,-0.041571,-0.01067153,0.0,0 STARLINK-4504,1 53555U 22101AE  22291.91667824 -.01067153  00000-0 -41571-1 0  9992,2 53555  53.2175 221.2476 0001368  63.2476  41.6338 15.28381279  1303,6858.788000000001,94.217,481.591,479.715,0.0
53555.0,STARLINK-4504,PAYLOAD,2022-10-19 14:00:01,15.26860067,0.0001346,53.2174,218.1694,78.4851,94.7051,-0.043373,-0.01063023,0.0,0 STARLINK-4504,1 53555U 22101AE  22292.58334491 -.01063023  00000-0 -43373-1 0  9991,2 53555  53.2174 218.1694 0001346  78.4851  94.7051 15.26860067  1306,6863.343000000003,94.311,486.131,484.284,0.0
53555.0,STARLINK-4504,PAYLOAD,2022-10-19 22:00:00,15.2610114,0.0001452,53.2176,216.6336,68.0876,137.887,-0.044431,-0.01064007,0.0,0 STARLINK-4504,1 53555U 22101AE  22292.91667824 -.01064007  00000-0 -44431-1 0  9996,2 53555  53.2176 216.6336 0001452  68.0876 137.8870 15.26101140  1302,6865.618,94.358,488.48,486.486,0.0
53555.0,STARLINK-4504,PAYLOAD,2022-10-20 14:00:01,15.24581126,0.0001277,53.2175,213.5657,93.4342,175.373,-0.046428,-0.01062009,0.0,0 STARLINK-4504,1 53555U 22101AE  22293.58334491 -.01062009  00000-0 -46428-1 0  9999,2 53555  53.2175 213.5657 0001277  93.4342 175.3730 15.24581126  1304,6870.181,94.452,492.923,491.168,0.0
53555.0,STARLINK-4504,PAYLOAD,2022-10-20 22:00:00,15.23822726,0.0001261,53.2175,212.0354,92.2847,206.5684,-0.047576,-0.01063607,0.0,0 STARLINK-4504,1 53555U 22101AE  22293.91667824 -.01063607  00000-0 -47576-1 0  9995,2 53555  53.2175 212.0354 0001261  92.2847 206.5684 15.23822726  1300,6872.46,94.499,495.191,493.458,0.0
53555.0,STARLINK-4504,PAYLOAD,2022-10-21 14:00:01,15.22301851,0.0001203,53.2174,208.9781,66.089,290.1213,-0.049644,-0.01060831,0.0,0 STARLINK-4504,1 53555U 22101AE  22294.58334491 -.01060831  00000-0 -49644-1 0  9994,2 53555  53.2174 208.9781 0001203  66.0890 290.1213 15.22301851  1307,6877.036,94.594,499.729,498.074,0.0
53555.0,STARLINK-4504,PAYLOAD,2022-10-21 22:00:00,15.21587715,0.0001293,53.2174,207.452,68.4383,315.0601,-0.054027,-0.01139207,0.0,0 STARLINK-4504,1 53555U 22101AE  22294.91667824 -.01139207  00000-0 -54027-1 0  9995,2 53555  53.2174 207.4520 0001293  68.4383 315.0601 15.21587715  1306,6879.188,94.638,501.942,500.164,0.0
53555.0,STARLINK-4504,PAYLOAD,2022-10-22 14:00:01,15.20023205,0.0001264999999999,53.2174,204.4065,67.7556,7.6437,-0.053084,-0.01060599,0.0,0 STARLINK-4504,1 53555U 22101AE  22295.58334491 -.01060599  00000-0 -53084-1 0  9999,2 53555  53.2174 204.4065 0001265  67.7556   7.6437 15.20023205  9992,6883.908,94.735,506.643,504.902,0.0
53555.0,STARLINK-4504,PAYLOAD,2022-10-22 22:00:00,15.19273956,0.0001394,53.2174,202.8859,67.4732,32.4927,-0.055087,-0.01089182,0.0,0 STARLINK-4504,1 53555U 22101AE  22295.91667824 -.01089182  00000-0 -55087-1 0  9999,2 53555  53.2174 202.8859 0001394  67.4732  32.4927 15.19273956  1306,6886.170999999999,94.782,508.996,507.076,0.0
53555.0,STARLINK-4504,PAYLOAD,2022-10-23 14:00:01,15.17745311,0.0001394,53.2174,199.851,70.1633,76.2106,-0.056766,-0.01074762,0.0,0 STARLINK-4504,1 53555U 22101AE  22296.58334491 -.01074762  00000-0 -56766-1 0  9997,2 53555  53.2174 199.8510 0001394  70.1633  76.2106 15.17745311 10140,6890.794,94.878,513.619,511.698,0.0
53555.0,STARLINK-4504,PAYLOAD,2022-10-23 22:00:00,15.17002272,0.0001425,53.2176,198.3357,76.9344,91.2649,-0.059351,-0.01098027,0.0,0 STARLINK-4504,1 53555U 22101AE  22296.91667824 -.01098027  00000-0 -59351-1 0  9996,2 53555  53.2176 198.3357 0001425  76.9344  91.2649 15.17002272  1302,6893.044,94.924,515.891,513.9259999999998,0.0
53555.0,STARLINK-4504,PAYLOAD,2022-10-24 14:00:01,15.15466086,0.0001419,53.2175,195.3108,73.4641,135.6715,-0.0605519999999999,-0.01073856,0.0,0 STARLINK-4504,1 53555U 22101AE  22297.58334491 -.01073856  00000-0 -60552-1 0  9999,2 53555  53.2175 195.3108 0001419  73.4641 135.6715 15.15466086  1309,6897.701,95.02,520.545,518.587,0.0
53555.0,STARLINK-4504,PAYLOAD,2022-10-24 22:00:00,15.14719985,0.0001412,53.2177,193.8014,86.9661,141.2575,-0.062981,-0.01092002,0.0,0 STARLINK-4504,1 53555U 22101AE  22297.91667824 -.01092002  00000-0 -62981-1 0  9997,2 53555  53.2177 193.8014 0001412  86.9661 141.2575 15.14719985  1309,6899.965999999999,95.067,522.805,520.857,0.0
53555.0,STARLINK-4504,PAYLOAD,2022-10-25 14:00:01,15.13186323,0.0001349,53.2175,190.787,75.9914,187.6916,-0.064459,-0.01071714,0.0,0 STARLINK-4504,1 53555U 22101AE  22298.58334491 -.01071714  00000-0 -64459-1 0  9991,2 53555  53.2175 190.7870 0001349  75.9914 187.6916 15.13186323  1307,6904.627,95.163,527.424,525.561,0.0
53555.0,STARLINK-4504,PAYLOAD,2022-10-25 22:00:01,15.12437202,0.0001356,53.2177,189.2831,91.1257,188.9718,-0.0667669999999999,-0.01085821,0.0,0 STARLINK-4504,1 53555U 22101AE  22298.91668981 -.01085821  00000-0 -66767-1 0  9990,2 53555  53.2177 189.2831 0001356  91.1257 188.9718 15.12437202  1305,6906.906999999997,95.211,529.7090000000002,527.835,0.0
53555.0,STARLINK-4504,PAYLOAD,2022-10-26 14:00:01,15.10907723,0.0001257,53.2174,186.2796,82.3018,227.7136,-0.068672,-0.01071182,0.0,0 STARLINK-4504,1 53555U 22101AE  22299.58334491 -.01071182  00000-0 -68672-1 0  9992,2 53555  53.2174 186.2796 0001257  82.3018 227.7136 15.10907723  1300,6911.566999999999,95.307,534.3009999999998,532.564,0.0
53555.0,STARLINK-4504,PAYLOAD,2022-10-26 22:00:00,15.10151329,0.0001268,53.2175,184.782,78.4875,245.145,-0.070607,-0.01077928,0.0,0 STARLINK-4504,1 53555U 22101AE  22299.91667824 -.01077928  00000-0 -70607-1 0  9993,2 53555  53.2175 184.7820 0001268  78.4875 245.1450 15.10151329  1307,6913.875,95.355,536.617,534.863,0.0
53555.0,STARLINK-4504,PAYLOAD,2022-10-27 06:00:00,15.09275987,0.000123,53.2173,183.284,97.9457,238.4063,-0.0350269999999999,-0.00530222,0.0,0 STARLINK-4504,1 53555U 22101AE  22300.25001157 -.00530222  00000-0 -35027-1 0  9991,2 53555  53.2173 183.2840 0001230  97.9457 238.4063 15.09275987 10706,6916.5480000000025,95.41,539.264,537.562,0.0
53555.0,STARLINK-4504,PAYLOAD,2022-10-27 14:00:01,15.08830475,0.0001267,53.2174,181.7858,82.8323,265.4793,0.00064107,9.927e-05,0.0,0 STARLINK-4504,1 53555U 22101AE  22300.58335648  .00009927  00000-0  64107-3 0  9996,2 53555  53.2174 181.7858 0001267  82.8323 265.4793 15.08830475 10757,6917.91,95.438,540.651,538.898,0.0
53555.0,STARLINK-4504,PAYLOAD,2022-10-27 22:00:00,15.08836921,0.0001416,53.2175,180.2911,73.18,286.6568,-3.9235000000000015e-06,-3.5000000000000016e-06,0.0,0 STARLINK-4504,1 53555U 22101AE  22300.91667824 -.00000350  00000-0 -39235-5 0  9996,2 53555  53.2175 180.2911 0001416  73.1800 286.6568 15.08836921  1309,6917.89,95.438,540.734,538.775,0.0
53555.0,STARLINK-4504,PAYLOAD,2022-10-28 14:00:01,15.0879783,0.0001327,53.2151,177.2868,84.3966,298.7522,0.0001374,1.897e-05,0.0,0 STARLINK-4504,1 53555U 22101AE  22301.58335648  .00001897  00000-0  13740-3 0  9992,2 53555  53.2151 177.2868 0001327  84.3966 298.7522 15.08797830  1307,6918.009,95.44,540.7919999999998,538.956,0.0
